*******************************************************************************
Ephemeris / WWW_USER Sat Apr 13 19:24:09 2019 Pasadena, USA      / Horizons    
*******************************************************************************
Target body name: Sun (10)                        {source: DE431mx}
Center body name: Earth (399)                     {source: DE431mx}
Center-site name: (user defined site below)
*******************************************************************************
Start time      : A.D. 2019-Mar-19 00:00:00.0000 UT      
Stop  time      : A.D. 2019-Mar-21 00:00:00.0000 UT      
Step-size       : 1 minutes
*******************************************************************************
Target pole/equ : IAU_SUN                         {East-longitude positive}
Target radii    : 696000.0 x 696000.0 x 696000.0 k{Equator, meridian, pole}    
Center geodetic : 0.00000000,0.00000000,0.0000000 {E-lon(deg),Lat(deg),Alt(km)}
Center cylindric: 0.00000000,6378.13700,0.0000000 {E-lon(deg),Dxy(km),Dz(km)}
Center pole/equ : High-precision EOP model        {East-longitude positive}
Center radii    : 6378.1 x 6378.1 x 6356.8 km     {Equator, meridian, pole}    
Target primary  : Sun
Vis. interferer : MOON (R_eq= 1737.400) km        {source: DE431mx}
Rel. light bend : Sun, EARTH                      {source: DE431mx}
Rel. lght bnd GM: 1.3271E+11, 3.9860E+05 km^3/s^2                              
Atmos refraction: NO (AIRLESS)
RA format       : DEG
Time format     : CAL 
RTS-only print  : NO       
EOP file        : eop.190412.p190704                                           
EOP coverage    : DATA-BASED 1962-JAN-20 TO 2019-APR-12. PREDICTS-> 2019-JUL-03
Units conversion: 1 au= 149597870.700 km, c= 299792.458 km/s, 1 day= 86400.0 s 
Table cut-offs 1: Elevation (-90.0deg=NO ),Airmass (>38.000=NO), Daylight (NO )
Table cut-offs 2: Solar elongation (  0.0,180.0=NO ),Local Hour Angle( 0.0=NO )
Table cut-offs 3: RA/DEC angular rate (     0.0=NO )                           
********************************************************************************
 Date__(UT)__HR:MN     R.A._(ICRF/J2K)_DEC R.A._(a-appar)_DEC. Azi_(a-appr)_Elev
********************************************************************************
$$SOE
 2019-Mar-20 12:25 *   359.39987  -0.26012 359.63690  -0.15716 267.9335  85.6376
 2019-Mar-20 12:26 *   359.40050  -0.25984 359.63752  -0.15688 268.0487  85.3877
 2019-Mar-20 12:27 *   359.40112  -0.25957 359.63814  -0.15661 268.1520  85.1378
 2019-Mar-20 12:28 *   359.40174  -0.25929 359.63877  -0.15633 268.2453  84.8878
 2019-Mar-20 12:29 *   359.40236  -0.25902 359.63939  -0.15606 268.3298  84.6379
 2019-Mar-20 12:30 *   359.40298  -0.25874 359.64001  -0.15578 268.4068  84.3879
 2019-Mar-20 12:31 *   359.40361  -0.25847 359.64063  -0.15551 268.4772  84.1380
 2019-Mar-20 12:32 *   359.40423  -0.25820 359.64126  -0.15524 268.5419  83.8880
 2019-Mar-20 12:33 *   359.40485  -0.25792 359.64188  -0.15496 268.6014  83.6380
 2019-Mar-20 12:34 *   359.40547  -0.25765 359.64250  -0.15469 268.6565  83.3880
 2019-Mar-20 12:35 *   359.40610  -0.25737 359.64312  -0.15441 268.7075  83.1380
 2019-Mar-20 12:36 *   359.40672  -0.25710 359.64374  -0.15414 268.7549  82.8881
 2019-Mar-20 12:37 *   359.40734  -0.25682 359.64437  -0.15386 268.7991  82.6381
 2019-Mar-20 12:38 *   359.40796  -0.25655 359.64499  -0.15359 268.8404  82.3880
 2019-Mar-20 12:39 *   359.40859  -0.25627 359.64561  -0.15331 268.8791  82.1380
 2019-Mar-20 12:40 *   359.40921  -0.25600 359.64623  -0.15304 268.9154  81.8880
 2019-Mar-20 12:41 *   359.40983  -0.25573 359.64686  -0.15277 268.9495  81.6380
 2019-Mar-20 12:42 *   359.41045  -0.25545 359.64748  -0.15249 268.9816  81.3880
 2019-Mar-20 12:43 *   359.41107  -0.25518 359.64810  -0.15222 269.0119  81.1380
 2019-Mar-20 12:44 *   359.41170  -0.25490 359.64872  -0.15194 269.0405  80.8880
 2019-Mar-20 12:45 *   359.41232  -0.25463 359.64934  -0.15167 269.0676  80.6379
 2019-Mar-20 12:46 *   359.41294  -0.25435 359.64997  -0.15139 269.0933  80.3879
 2019-Mar-20 12:47 *   359.41356  -0.25408 359.65059  -0.15112 269.1177  80.1379
 2019-Mar-20 12:48 *   359.41419  -0.25380 359.65121  -0.15084 269.1408  79.8879
 2019-Mar-20 12:49 *   359.41481  -0.25353 359.65183  -0.15057 269.1629  79.6378
 2019-Mar-20 12:50 *   359.41543  -0.25326 359.65246  -0.15030 269.1839  79.3878
 2019-Mar-20 12:51 *   359.41605  -0.25298 359.65308  -0.15002 269.2039  79.1378
 2019-Mar-20 12:52 *   359.41668  -0.25271 359.65370  -0.14975 269.2230  78.8877
 2019-Mar-20 12:53 *   359.41730  -0.25243 359.65432  -0.14947 269.2413  78.6377
 2019-Mar-20 12:54 *   359.41792  -0.25216 359.65495  -0.14920 269.2588  78.3877
 2019-Mar-20 12:55 *   359.41854  -0.25188 359.65557  -0.14892 269.2755  78.1376
 2019-Mar-20 12:56 *   359.41917  -0.25161 359.65619  -0.14865 269.2916  77.8876
 2019-Mar-20 12:57 *   359.41979  -0.25134 359.65681  -0.14838 269.3070  77.6375
 2019-Mar-20 12:58 *   359.42041  -0.25106 359.65744  -0.14810 269.3217  77.3875
 2019-Mar-20 12:59 *   359.42103  -0.25079 359.65806  -0.14783 269.3359  77.1375
 2019-Mar-20 13:00 *   359.42166  -0.25051 359.65868  -0.14755 269.3496  76.8874
 2019-Mar-20 13:01 *   359.42228  -0.25024 359.65930  -0.14728 269.3627  76.6374
 2019-Mar-20 13:02 *   359.42290  -0.24996 359.65993  -0.14700 269.3754  76.3873
 2019-Mar-20 13:03 *   359.42352  -0.24969 359.66055  -0.14673 269.3876  76.1373
 2019-Mar-20 13:04 *   359.42415  -0.24941 359.66117  -0.14645 269.3994  75.8872
 2019-Mar-20 13:05 *   359.42477  -0.24914 359.66179  -0.14618 269.4107  75.6372
 2019-Mar-20 13:06 *   359.42539  -0.24887 359.66242  -0.14591 269.4217  75.3871
 2019-Mar-20 13:07 *   359.42601  -0.24859 359.66304  -0.14563 269.4322  75.1371
 2019-Mar-20 13:08 *   359.42664  -0.24832 359.66366  -0.14536 269.4425  74.8870
 2019-Mar-20 13:09 *   359.42726  -0.24804 359.66428  -0.14508 269.4524  74.6370
 2019-Mar-20 13:10 *   359.42788  -0.24777 359.66491  -0.14481 269.4620  74.3869
 2019-Mar-20 13:11 *   359.42850  -0.24749 359.66553  -0.14453 269.4712  74.1369
 2019-Mar-20 13:12 *   359.42913  -0.24722 359.66615  -0.14426 269.4802  73.8869
 2019-Mar-20 13:13 *   359.42975  -0.24695 359.66677  -0.14398 269.4889  73.6368
 2019-Mar-20 13:14 *   359.43037  -0.24667 359.66740  -0.14371 269.4974  73.3868
 2019-Mar-20 13:15 *   359.43100  -0.24640 359.66802  -0.14344 269.5055  73.1367
 2019-Mar-20 13:16 *   359.43162  -0.24612 359.66864  -0.14316 269.5135  72.8867
 2019-Mar-20 13:17 *   359.43224  -0.24585 359.66926  -0.14289 269.5212  72.6366
 2019-Mar-20 13:18 *   359.43286  -0.24557 359.66989  -0.14261 269.5287  72.3866
 2019-Mar-20 13:19 *   359.43349  -0.24530 359.67051  -0.14234 269.5360  72.1365
 2019-Mar-20 13:20 *   359.43411  -0.24502 359.67113  -0.14206 269.5431  71.8864
 2019-Mar-20 13:21 *   359.43473  -0.24475 359.67175  -0.14179 269.5499  71.6364
 2019-Mar-20 13:22 *   359.43535  -0.24448 359.67238  -0.14152 269.5566  71.3863
 2019-Mar-20 13:23 *   359.43598  -0.24420 359.67300  -0.14124 269.5631  71.1363
 2019-Mar-20 13:24 *   359.43660  -0.24393 359.67362  -0.14097 269.5695  70.8862
 2019-Mar-20 13:25 *   359.43722  -0.24365 359.67424  -0.14069 269.5757  70.6362
 2019-Mar-20 13:26 *   359.43785  -0.24338 359.67487  -0.14042 269.5817  70.3861
 2019-Mar-20 13:27 *   359.43847  -0.24310 359.67549  -0.14014 269.5876  70.1361
 2019-Mar-20 13:28 *   359.43909  -0.24283 359.67611  -0.13987 269.5933  69.8860
 2019-Mar-20 13:29 *   359.43971  -0.24255 359.67674  -0.13959 269.5988  69.6360
 2019-Mar-20 13:30 *   359.44034  -0.24228 359.67736  -0.13932 269.6043  69.3859
 2019-Mar-20 13:31 *   359.44096  -0.24201 359.67798  -0.13905 269.6096  69.1359
 2019-Mar-20 13:32 *   359.44158  -0.24173 359.67860  -0.13877 269.6148  68.8858
 2019-Mar-20 13:33 *   359.44221  -0.24146 359.67923  -0.13850 269.6198  68.6358
 2019-Mar-20 13:34 *   359.44283  -0.24118 359.67985  -0.13822 269.6248  68.3857
 2019-Mar-20 13:35 *   359.44345  -0.24091 359.68047  -0.13795 269.6296  68.1356
 2019-Mar-20 13:36 *   359.44408  -0.24063 359.68110  -0.13767 269.6343  67.8856
 2019-Mar-20 13:37 *   359.44470  -0.24036 359.68172  -0.13740 269.6389  67.6355
 2019-Mar-20 13:38 *   359.44532  -0.24009 359.68234  -0.13712 269.6434  67.3855
 2019-Mar-20 13:39 *   359.44594  -0.23981 359.68296  -0.13685 269.6478  67.1354
 2019-Mar-20 13:40 *   359.44657  -0.23954 359.68359  -0.13658 269.6521  66.8854
 2019-Mar-20 13:41 *   359.44719  -0.23926 359.68421  -0.13630 269.6563  66.6353
 2019-Mar-20 13:42 *   359.44781  -0.23899 359.68483  -0.13603 269.6604  66.3853
 2019-Mar-20 13:43 *   359.44844  -0.23871 359.68546  -0.13575 269.6645  66.1352
 2019-Mar-20 13:44 *   359.44906  -0.23844 359.68608  -0.13548 269.6684  65.8851
 2019-Mar-20 13:45 *   359.44968  -0.23816 359.68670  -0.13520 269.6723  65.6351
 2019-Mar-20 13:46 *   359.45031  -0.23789 359.68732  -0.13493 269.6761  65.3850
 2019-Mar-20 13:47 *   359.45093  -0.23762 359.68795  -0.13466 269.6798  65.1350
 2019-Mar-20 13:48 *   359.45155  -0.23734 359.68857  -0.13438 269.6834  64.8849
 2019-Mar-20 13:49 *   359.45218  -0.23707 359.68919  -0.13411 269.6869  64.6349
 2019-Mar-20 13:50 *   359.45280  -0.23679 359.68982  -0.13383 269.6904  64.3848
 2019-Mar-20 13:51 *   359.45342  -0.23652 359.69044  -0.13356 269.6939  64.1348
 2019-Mar-20 13:52 *   359.45405  -0.23624 359.69106  -0.13328 269.6972  63.8847
 2019-Mar-20 13:53 *   359.45467  -0.23597 359.69169  -0.13301 269.7005  63.6346
 2019-Mar-20 13:54 *   359.45529  -0.23569 359.69231  -0.13273 269.7037  63.3846
 2019-Mar-20 13:55 *   359.45592  -0.23542 359.69293  -0.13246 269.7069  63.1345
 2019-Mar-20 13:56 *   359.45654  -0.23515 359.69356  -0.13219 269.7100  62.8845
 2019-Mar-20 13:57 *   359.45716  -0.23487 359.69418  -0.13191 269.7130  62.6344
 2019-Mar-20 13:58 *   359.45779  -0.23460 359.69480  -0.13164 269.7160  62.3844
 2019-Mar-20 13:59 *   359.45841  -0.23432 359.69543  -0.13136 269.7189  62.1343
